[Satellite]
VERSION=1.1
NAME=YAOGAN-34 03
NICKNAME=YAOGAN-34 03
TLE1=1 54249U 22154A   22342.45529145 -.00000090  00000+0  00000+0 0  9994
TLE2=2 54249  63.4101 326.1995 0009002 268.1985 178.1988 13.45265273  3155
STATUS=0
